{
  "type": "FeatureCollection",
  "features": [
    {
      "type": "Feature",
      "properties": {
        "norad_id": 38867,
        "name": "INTELSAT 23 (IS-23)",
        "group": "intelsat",
        "lat": 0.031456906040818466,
        "lon": 99.85566226023806,
        "alt_km": 35788.24600902015,
        "timestamp": "2025-12-25T03:55:55.975025+00:00",
        "meta_object_name": "INTELSAT 23 (IS-23)",
        "meta_object_id": "2012-057A",
        "meta_epoch": "2025-12-24T06:00:30.893184",
        "meta_mean_motion": 1.00259571,
        "meta_eccentricity": 3.226e-05,
        "meta_inclination": 0.0157,
        "meta_ra_of_asc_node": 47.8296,
        "meta_arg_of_pericenter": 47.4441,
        "meta_mean_anomaly": 34.8739,
        "meta_ephemeris_type": 0,
        "meta_classification_type": "U",
        "meta_norad_cat_id": 38867,
        "meta_element_set_no": 999,
        "meta_rev_at_epoch": 4820,
        "meta_bstar": 0,
        "meta_mean_motion_dot": -2.64e-06,
        "meta_mean_motion_ddot": 0,
        "tle_line1": "1 38867U 12057A   25358.25035756 -.00000264  00000+0  00000+0 0  9994",
        "tle_line2": "2 38867   0.0157  47.8296 0000322  47.4441  34.8739  1.00259571 48202"
      },
      "geometry": {
        "type": "Point",
        "coordinates": [
          99.85566226023806,
          0.031456906040818466
        ]
      }
    },
    {
      "type": "Feature",
      "properties": {
        "norad_id": 39360,
        "name": "FM-6",
        "group": "intelsat",
        "lat": -0.004926203249759888,
        "lon": 36.7387181809157,
        "alt_km": 35793.30911223163,
        "timestamp": "2025-12-25T03:55:55.975037+00:00",
        "meta_object_name": "FM-6",
        "meta_object_id": "2013-058A",
        "meta_epoch": "2025-12-24T11:33:38.657088",
        "meta_mean_motion": 1.00281075,
        "meta_eccentricity": 0.0002629,
        "meta_inclination": 0.0161,
        "meta_ra_of_asc_node": 72.2411,
        "meta_arg_of_pericenter": 117.6968,
        "meta_mean_anomaly": 320.5533,
        "meta_ephemeris_type": 0,
        "meta_classification_type": "U",
        "meta_norad_cat_id": 39360,
        "meta_element_set_no": 999,
        "meta_rev_at_epoch": 4432,
        "meta_bstar": 0,
        "meta_mean_motion_dot": 3e-08,
        "meta_mean_motion_ddot": 0,
        "tle_line1": "1 39360U 13058A   25358.48169742  .00000003  00000+0  00000+0 0  9993",
        "tle_line2": "2 39360   0.0161  72.2411 0002629 117.6968 320.5533  1.00281075 44323"
      },
      "geometry": {
        "type": "Point",
        "coordinates": [
          36.7387181809157,
          -0.004926203249759888
        ]
      }
    },
    {
      "type": "Feature",
      "properties": {
        "norad_id": 40271,
        "name": "INTELSAT 30 (IS-30)",
        "group": "intelsat",
        "lat": 0.020095285071711145,
        "lon": 57.832819560141125,
        "alt_km": 35781.234933809734,
        "timestamp": "2025-12-25T03:55:55.975049+00:00",
        "meta_object_name": "INTELSAT 30 (IS-30)",
        "meta_object_id": "2014-062A",
        "meta_epoch": "2025-12-24T14:21:33.831072",
        "meta_mean_motion": 1.0026973,
        "meta_eccentricity": 0.0001519,
        "meta_inclination": 0.0142,
        "meta_ra_of_asc_node": 29.4998,
        "meta_arg_of_pericenter": 60.471,
        "meta_mean_anomaly": 123.7324,
        "meta_ephemeris_type": 0,
        "meta_classification_type": "U",
        "meta_norad_cat_id": 40271,
        "meta_element_set_no": 999,
        "meta_rev_at_epoch": 504,
        "meta_bstar": 0,
        "meta_mean_motion_dot": -1.3e-06,
        "meta_mean_motion_ddot": 0,
        "tle_line1": "1 40271U 14062A   25358.59830823 -.00000130  00000+0  00000+0 0  9991",
        "tle_line2": "2 40271   0.0142  29.4998 0001519  60.4710 123.7324  1.00269730  5047"
      },
      "geometry": {
        "type": "Point",
        "coordinates": [
          57.832819560141125,
          0.020095285071711145
        ]
      }
    },
    {
      "type": "Feature",
      "properties": {
        "norad_id": 40333,
        "name": "DIRECTV 14",
        "group": "intelsat",
        "lat": 0.03167122157099707,
        "lon": 53.71224344688657,
        "alt_km": 35785.47964227115,
        "timestamp": "2025-12-25T03:55:55.975061+00:00",
        "meta_object_name": "DIRECTV 14",
        "meta_object_id": "2014-078B",
        "meta_epoch": "2025-12-24T12:37:43.773312",
        "meta_mean_motion": 1.00279829,
        "meta_eccentricity": 3.89e-05,
        "meta_inclination": 0.0184,
        "meta_ra_of_asc_node": 340.4706,
        "meta_arg_of_pericenter": 254.7884,
        "meta_mean_anomaly": 308.2619,
        "meta_ephemeris_type": 0,
        "meta_classification_type": "U",
        "meta_norad_cat_id": 40333,
        "meta_element_set_no": 999,
        "meta_rev_at_epoch": 4029,
        "meta_bstar": 0,
        "meta_mean_motion_dot": -1.06e-06,
        "meta_mean_motion_ddot": 0,
        "tle_line1": "1 40333U 14078B   25358.52620108 -.00000106  00000+0  00000+0 0  9996",
        "tle_line2": "2 40333   0.0184 340.4706 0000389 254.7884 308.2619  1.00279829 40292"
      },
      "geometry": {
        "type": "Point",
        "coordinates": [
          53.71224344688657,
          0.03167122157099707
        ]
      }
    },
    {
      "type": "Feature",
      "properties": {
        "norad_id": 40663,
        "name": "DIRECTV 15",
        "group": "intelsat",
        "lat": 0.023024364198462682,
        "lon": 50.00538456448468,
        "alt_km": 35788.003484274275,
        "timestamp": "2025-12-25T03:55:55.975073+00:00",
        "meta_object_name": "DIRECTV 15",
        "meta_object_id": "2015-026A",
        "meta_epoch": "2025-12-24T05:45:47.302848",
        "meta_mean_motion": 1.00268312,
        "meta_eccentricity": 5.031e-05,
        "meta_inclination": 0.0214,
        "meta_ra_of_asc_node": 20.6929,
        "meta_arg_of_pericenter": 145.8822,
        "meta_mean_anomaly": 270.0068,
        "meta_ephemeris_type": 0,
        "meta_classification_type": "U",
        "meta_norad_cat_id": 40663,
        "meta_element_set_no": 999,
        "meta_rev_at_epoch": 3870,
        "meta_bstar": 0,
        "meta_mean_motion_dot": 0,
        "meta_mean_motion_ddot": 0,
        "tle_line1": "1 40663U 15026A   25358.24013082  .00000000  00000+0  00000+0 0  9994",
        "tle_line2": "2 40663   0.0214  20.6929 0000503 145.8822 270.0068  1.00268312 38708"
      },
      "geometry": {
        "type": "Point",
        "coordinates": [
          50.00538456448468,
          0.023024364198462682
        ]
      }
    },
    {
      "type": "Feature",
      "properties": {
        "norad_id": 40664,
        "name": "SKY MEXICO-1",
        "group": "intelsat",
        "lat": 0.02566371081475876,
        "lon": 74.15150603489309,
        "alt_km": 35795.14422078628,
        "timestamp": "2025-12-25T03:55:55.975085+00:00",
        "meta_object_name": "SKY MEXICO-1",
        "meta_object_id": "2015-026B",
        "meta_epoch": "2025-12-24T07:10:03.735840",
        "meta_mean_motion": 1.00270371,
        "meta_eccentricity": 0.00024911,
        "meta_inclination": 0.0084,
        "meta_ra_of_asc_node": 342.1449,
        "meta_arg_of_pericenter": 307.4864,
        "meta_mean_anomaly": 192.1944,
        "meta_ephemeris_type": 0,
        "meta_classification_type": "U",
        "meta_norad_cat_id": 40664,
        "meta_element_set_no": 999,
        "meta_rev_at_epoch": 3870,
        "meta_bstar": 0,
        "meta_mean_motion_dot": -2.13e-06,
        "meta_mean_motion_ddot": 0,
        "tle_line1": "1 40664U 15026B   25358.29865435 -.00000213  00000+0  00000+0 0  9994",
        "tle_line2": "2 40664   0.0084 342.1449 0002491 307.4864 192.1944  1.00270371 38708"
      },
      "geometry": {
        "type": "Point",
        "coordinates": [
          74.15150603489309,
          0.02566371081475876
        ]
      }
    },
    {
      "type": "Feature",
      "properties": {
        "norad_id": 40874,
        "name": "INTELSAT 34 (IS-34)",
        "group": "intelsat",
        "lat": 0.02098395756604476,
        "lon": 97.39921639027764,
        "alt_km": 35785.384861552084,
        "timestamp": "2025-12-25T03:55:55.975097+00:00",
        "meta_object_name": "INTELSAT 34 (IS-34)",
        "meta_object_id": "2015-039A",
        "meta_epoch": "2025-12-24T05:59:16.012896",
        "meta_mean_motion": 1.00270249,
        "meta_eccentricity": 6.867e-05,
        "meta_inclination": 0.0128,
        "meta_ra_of_asc_node": 316.008,
        "meta_arg_of_pericenter": 206.3361,
        "meta_mean_anomaly": 325.0065,
        "meta_ephemeris_type": 0,
        "meta_classification_type": "U",
        "meta_norad_cat_id": 40874,
        "meta_element_set_no": 999,
        "meta_rev_at_epoch": 3787,
        "meta_bstar": 0,
        "meta_mean_motion_dot": -2.64e-06,
        "meta_mean_motion_ddot": 0,
        "tle_line1": "1 40874U 15039A   25358.24949089 -.00000264  00000+0  00000+0 0  9990",
        "tle_line2": "2 40874   0.0128 316.0080 0000686 206.3361 325.0065  1.00270249 37876"
      },
      "geometry": {
        "type": "Point",
        "coordinates": [
          97.39921639027764,
          0.02098395756604476
        ]
      }
    }
  ]
}